{
    "links": {
        "self": "http://www.neowsapp.com/rest/v1/neo/3986700?api_key=iIulBulltgU6a56xZRHN4H3l9WmuAYTsLGpBGhQ2"
    },
    "id": "3986700",
    "neo_reference_id": "3986700",
    "name": "(2020 BD)",
    "designation": "2020 BD",
    "nasa_jpl_url": "http://ssd.jpl.nasa.gov/sbdb.cgi?sstr=3986700",
    "absolute_magnitude_h": 26.218,
    "estimated_diameter": {
        "kilometers": {
            "estimated_diameter_min": 0.015168931,
            "estimated_diameter_max": 0.0339187609
        },
        "meters": {
            "estimated_diameter_min": 15.1689310271,
            "estimated_diameter_max": 33.9187609225
        },
        "miles": {
            "estimated_diameter_min": 0.0094255338,
            "estimated_diameter_max": 0.0210761344
        },
        "feet": {
            "estimated_diameter_min": 49.7668356708,
            "estimated_diameter_max": 111.2820275849
        }
    },
    "is_potentially_hazardous_asteroid": false,
    "close_approach_data": [
        {
            "close_approach_date": "2017-02-14",
            "close_approach_date_full": "2017-Feb-14 13:17",
            "epoch_date_close_approach": 1487078220000,
            "relative_velocity": {
                "kilometers_per_second": "25.4596328683",
                "kilometers_per_hour": "91654.6783258858",
                "miles_per_hour": "56950.6527631038"
            },
            "miss_distance": {
                "astronomical": "0.469580713",
                "lunar": "182.666897357",
                "kilometers": "70248274.45788131",
                "miles": "43650253.658969678"
            },
            "orbiting_body": "Earth"
        },
        {
            "close_approach_date": "2020-01-14",
            "close_approach_date_full": "2020-Jan-14 19:46",
            "epoch_date_close_approach": 1579031160000,
            "relative_velocity": {
                "kilometers_per_second": "11.4958984455",
                "kilometers_per_hour": "41385.2344036906",
                "miles_per_hour": "25715.1752326709"
            },
            "miss_distance": {
                "astronomical": "0.0124188553",
                "lunar": "4.8309347117",
                "kilometers": "1857834.300718211",
                "miles": "1154404.7040088718"
            },
            "orbiting_body": "Earth"
        },
        {
            "close_approach_date": "2022-10-16",
            "close_approach_date_full": "2022-Oct-16 01:11",
            "epoch_date_close_approach": 1665882660000,
            "relative_velocity": {
                "kilometers_per_second": "11.4019819819",
                "kilometers_per_hour": "41047.1351347075",
                "miles_per_hour": "25505.0934952298"
            },
            "miss_distance": {
                "astronomical": "0.0309387345",
                "lunar": "12.0351677205",
                "kilometers": "4628368.781695515",
                "miles": "2875935.002067507"
            },
            "orbiting_body": "Earth"
        }
    ],
    "orbital_data": {
        "orbit_id": "7",
        "orbit_determination_date": "2020-02-13 05:12:17",
        "first_observation_date": "2020-01-18",
        "last_observation_date": "2020-02-13",
        "data_arc_in_days": 26,
        "observations_used": 38,
        "orbit_uncertainty": "7",
        "minimum_orbit_intersection": ".0107992",
        "jupiter_tisserand_invariant": "3.570",
        "epoch_osculation": "2459000.5",
        "eccentricity": ".5689374487747103",
        "semi_major_axis": "2.049623871894226",
        "inclination": "1.872920987848296",
        "ascending_node_longitude": "93.46801761642908",
        "orbital_period": "1071.789955959769",
        "perihelion_distance": ".8835160952709814",
        "perihelion_argument": "335.7393190178728",
        "aphelion_distance": "3.215731648517471",
        "perihelion_time": "2458831.204290206350",
        "mean_anomaly": "56.8641786450943",
        "mean_motion": ".3358867080235196",
        "equinox": "J2000",
        "orbit_class": {
            "orbit_class_type": "APO",
            "orbit_class_description": "Near-Earth asteroid orbits which cross the Earth’s orbit similar to that of 1862 Apollo",
            "orbit_class_range": "a (semi-major axis) > 1.0 AU; q (perihelion) < 1.017 AU"
        }
    },
    "is_sentry_object": false
}